O3B MPOWER F1           
1 54755U 22174A   23314.52922424 -.00000014  00000+0  00000+0 0  9999
2 54755   0.0531  18.9471 0005474 225.4987 235.8043  5.00118438 17850
